ONEWEB-0262             
1 48980U 21060P   25269.55796873  .00000111  00000+0  25630-3 0  9993
2 48980  87.8969 281.3041 0001851 102.4337 257.7001 13.16592544204932
ONEWEB-0263             
1 48981U 21060Q   25269.58964291 -.00000095  00000+0 -28345-3 0  9997
2 48981  87.8960 281.3186 0001516 102.3302 257.7999 13.16595260204904
ONEWEB-0264             
1 48982U 21060R   25269.93084617  .00000064  00000+0  13492-3 0  9993
2 48982  87.8957 281.2548 0001615  86.0765 274.0551 13.16593834204959
ONEWEB-0266             
1 48984U 21060T   25269.95220408  .00000154  00000+0  37032-3 0  9993
2 48984  87.8968 281.2290 0001995  94.5655 265.5704 13.16596209204943
ONEWEB-0267             
1 48985U 21060U   25269.96329392  .00000109  00000+0  25083-3 0  9990
2 48985  87.8967 281.2292 0001575  94.0078 266.1233 13.16595797204959
ONEWEB-0268             
1 48986U 21060V   25269.93161055  .00000078  00000+0  16990-3 0  9990
2 48986  87.8966 281.2416 0001764  88.8263 271.3070 13.16595727205214
ONEWEB-0269             
1 48987U 21060W   25269.53265316 -.00000015  00000+0 -73248-4 0  9995
2 48987  87.8959 281.3507 0001966  88.6145 271.5211 13.16594380204931
ONEWEB-0270             
1 48988U 21060X   25269.93003681  .00000111  00000+0  25653-3 0  9996
2 48988  87.8966 281.2436 0001563 103.5742 256.5563 13.16596082205028
ONEWEB-0271             
1 48989U 21060Y   25269.53738674  .00000003  00000+0 -27095-4 0  9994
2 48989  87.8968 281.3064 0001581  94.6938 265.4374 13.16595516204979
ONEWEB-0272             
1 48990U 21060Z   25269.93953648  .00000111  00000+0  25674-3 0  9999
2 48990  87.8958 281.2527 0001581  88.6748 271.4564 13.16592959204971
ONEWEB-0273             
1 48991U 21060AA  25269.96171889  .00000106  00000+0  24443-3 0  9999
2 48991  87.8967 281.2372 0001766  96.9699 263.1632 13.16595537204959
ONEWEB-0274             
1 48992U 21060AB  25269.53106321 -.00000044  00000+0 -14872-3 0  9990
2 48992  87.8958 281.3535 0001657  78.9124 281.2193 13.16595388204939
ONEWEB-0275             
1 48993U 21060AC  25269.59597437 -.00000075  00000+0 -22864-3 0  9993
2 48993  87.8966 281.3049 0001755  89.6965 270.4367 13.16594869204879
ONEWEB-0276             
1 48994U 21060AD  25269.93319778  .00000107  00000+0  24614-3 0  9991
2 48994  87.8968 281.2353 0001863  97.4627 262.6716 13.16596507204930
ONEWEB-0277             
1 48995U 21060AE  25269.56566023  .00000095  00000+0  21503-3 0  9998
2 48995  87.8960 281.3406 0001607  89.0798 271.0517 13.16641516204872
ONEWEB-0278             
1 48996U 21060AF  25269.93637272  .00000123  00000+0  28736-3 0  9992
2 48996  87.8969 281.2314 0002065  95.4552 264.6815 13.16592863205057
