[{"OBJECT_NAME":"ONEWEB-0262","OBJECT_ID":"2021-060P","EPOCH":"2025-09-26T13:23:28.498272","MEAN_MOTION":13.16592544,"ECCENTRICITY":0.00018516,"INCLINATION":87.8969,"RA_OF_ASC_NODE":281.3041,"ARG_OF_PERICENTER":102.4337,"MEAN_ANOMALY":257.7001,"EPHEMERIS_TYPE":0,"CLASSIFICATION_TYPE":"U","NORAD_CAT_ID":48980,"ELEMENT_SET_NO":999,"REV_AT_EPOCH":20493,"BSTAR":0.00025629986,"MEAN_MOTION_DOT":1.11e-6,"MEAN_MOTION_DDOT":0},{"OBJECT_NAME":"ONEWEB-0263","OBJECT_ID":"2021-060Q","EPOCH":"2025-09-26T14:09:05.147424","MEAN_MOTION":13.1659526,"ECCENTRICITY":0.00015168,"INCLINATION":87.896,"RA_OF_ASC_NODE":281.3186,"ARG_OF_PERICENTER":102.3302,"MEAN_ANOMALY":257.7999,"EPHEMERIS_TYPE":0,"CLASSIFICATION_TYPE":"U","NORAD_CAT_ID":48981,"ELEMENT_SET_NO":999,"REV_AT_EPOCH":20490,"BSTAR":-0.0002834465,"MEAN_MOTION_DOT":-9.5e-7,"MEAN_MOTION_DDOT":0},{"OBJECT_NAME":"ONEWEB-0264","OBJECT_ID":"2021-060R","EPOCH":"2025-09-26T22:20:25.109088","MEAN_MOTION":13.16593834,"ECCENTRICITY":0.00016157,"INCLINATION":87.8957,"RA_OF_ASC_NODE":281.2548,"ARG_OF_PERICENTER":86.0765,"MEAN_ANOMALY":274.0551,"EPHEMERIS_TYPE":0,"CLASSIFICATION_TYPE":"U","NORAD_CAT_ID":48982,"ELEMENT_SET_NO":999,"REV_AT_EPOCH":20495,"BSTAR":0.00013492141,"MEAN_MOTION_DOT":6.4e-7,"MEAN_MOTION_DDOT":0},{"OBJECT_NAME":"ONEWEB-0266","OBJECT_ID":"2021-060T","EPOCH":"2025-09-26T22:51:10.432512","MEAN_MOTION":13.16596209,"ECCENTRICITY":0.00019958,"INCLINATION":87.8968,"RA_OF_ASC_NODE":281.229,"ARG_OF_PERICENTER":94.5655,"MEAN_ANOMALY":265.5704,"EPHEMERIS_TYPE":0,"CLASSIFICATION_TYPE":"U","NORAD_CAT_ID":48984,"ELEMENT_SET_NO":999,"REV_AT_EPOCH":20494,"BSTAR":0.00037032245,"MEAN_MOTION_DOT":1.54e-6,"MEAN_MOTION_DDOT":0},{"OBJECT_NAME":"ONEWEB-0267","OBJECT_ID":"2021-060U","EPOCH":"2025-09-26T23:07:08.594688","MEAN_MOTION":13.16595797,"ECCENTRICITY":0.00015751,"INCLINATION":87.8967,"RA_OF_ASC_NODE":281.2292,"ARG_OF_PERICENTER":94.0078,"MEAN_ANOMALY":266.1233,"EPHEMERIS_TYPE":0,"CLASSIFICATION_TYPE":"U","NORAD_CAT_ID":48985,"ELEMENT_SET_NO":999,"REV_AT_EPOCH":20495,"BSTAR":0.00025082692,"MEAN_MOTION_DOT":1.09e-6,"MEAN_MOTION_DDOT":0},{"OBJECT_NAME":"ONEWEB-0268","OBJECT_ID":"2021-060V","EPOCH":"2025-09-26T22:21:31.151520","MEAN_MOTION":13.16595727,"ECCENTRICITY":0.0001764,"INCLINATION":87.8966,"RA_OF_ASC_NODE":281.2416,"ARG_OF_PERICENTER":88.8263,"MEAN_ANOMALY":271.307,"EPHEMERIS_TYPE":0,"CLASSIFICATION_TYPE":"U","NORAD_CAT_ID":48986,"ELEMENT_SET_NO":999,"REV_AT_EPOCH":20521,"BSTAR":0.00016989953,"MEAN_MOTION_DOT":7.8e-7,"MEAN_MOTION_DDOT":0},{"OBJECT_NAME":"ONEWEB-0269","OBJECT_ID":"2021-060W","EPOCH":"2025-09-26T12:47:01.233024","MEAN_MOTION":13.1659438,"ECCENTRICITY":0.00019666,"INCLINATION":87.8959,"RA_OF_ASC_NODE":281.3507,"ARG_OF_PERICENTER":88.6145,"MEAN_ANOMALY":271.5211,"EPHEMERIS_TYPE":0,"CLASSIFICATION_TYPE":"U","NORAD_CAT_ID":48987,"ELEMENT_SET_NO":999,"REV_AT_EPOCH":20493,"BSTAR":-7.3248134e-5,"MEAN_MOTION_DOT":-1.5e-7,"MEAN_MOTION_DDOT":0},{"OBJECT_NAME":"ONEWEB-0270","OBJECT_ID":"2021-060X","EPOCH":"2025-09-26T22:19:15.180384","MEAN_MOTION":13.16596082,"ECCENTRICITY":0.00015633,"INCLINATION":87.8966,"RA_OF_ASC_NODE":281.2436,"ARG_OF_PERICENTER":103.5742,"MEAN_ANOMALY":256.5563,"EPHEMERIS_TYPE":0,"CLASSIFICATION_TYPE":"U","NORAD_CAT_ID":48988,"ELEMENT_SET_NO":999,"REV_AT_EPOCH":20502,"BSTAR":0.00025652772,"MEAN_MOTION_DOT":1.11e-6,"MEAN_MOTION_DDOT":0},{"OBJECT_NAME":"ONEWEB-0271","OBJECT_ID":"2021-060Y","EPOCH":"2025-09-26T12:53:50.214336","MEAN_MOTION":13.16595516,"ECCENTRICITY":0.00015818,"INCLINATION":87.8968,"RA_OF_ASC_NODE":281.3064,"ARG_OF_PERICENTER":94.6938,"MEAN_ANOMALY":265.4374,"EPHEMERIS_TYPE":0,"CLASSIFICATION_TYPE":"U","NORAD_CAT_ID":48989,"ELEMENT_SET_NO":999,"REV_AT_EPOCH":20497,"BSTAR":-2.7095379e-5,"MEAN_MOTION_DOT":3.0e-8,"MEAN_MOTION_DDOT":0},{"OBJECT_NAME":"ONEWEB-0272","OBJECT_ID":"2021-060Z","EPOCH":"2025-09-26T22:32:55.951872","MEAN_MOTION":13.16592959,"ECCENTRICITY":0.00015817,"INCLINATION":87.8958,"RA_OF_ASC_NODE":281.2527,"ARG_OF_PERICENTER":88.6748,"MEAN_ANOMALY":271.4564,"EPHEMERIS_TYPE":0,"CLASSIFICATION_TYPE":"U","NORAD_CAT_ID":48990,"ELEMENT_SET_NO":999,"REV_AT_EPOCH":20497,"BSTAR":0.00025674284,"MEAN_MOTION_DOT":1.11e-6,"MEAN_MOTION_DDOT":0},{"OBJECT_NAME":"ONEWEB-0273","OBJECT_ID":"2021-060AA","EPOCH":"2025-09-26T23:04:52.512096","MEAN_MOTION":13.16595537,"ECCENTRICITY":0.00017661,"INCLINATION":87.8967,"RA_OF_ASC_NODE":281.2372,"ARG_OF_PERICENTER":96.9699,"MEAN_ANOMALY":263.1632,"EPHEMERIS_TYPE":0,"CLASSIFICATION_TYPE":"U","NORAD_CAT_ID":48991,"ELEMENT_SET_NO":999,"REV_AT_EPOCH":20495,"BSTAR":0.0002444327,"MEAN_MOTION_DOT":1.06e-6,"MEAN_MOTION_DDOT":0},{"OBJECT_NAME":"ONEWEB-0274","OBJECT_ID":"2021-060AB","EPOCH":"2025-09-26T12:44:43.861344","MEAN_MOTION":13.16595388,"ECCENTRICITY":0.00016572,"INCLINATION":87.8958,"RA_OF_ASC_NODE":281.3535,"ARG_OF_PERICENTER":78.9124,"MEAN_ANOMALY":281.2193,"EPHEMERIS_TYPE":0,"CLASSIFICATION_TYPE":"U","NORAD_CAT_ID":48992,"ELEMENT_SET_NO":999,"REV_AT_EPOCH":20493,"BSTAR":-0.00014872432,"MEAN_MOTION_DOT":-4.4e-7,"MEAN_MOTION_DDOT":0},{"OBJECT_NAME":"ONEWEB-0275","OBJECT_ID":"2021-060AC","EPOCH":"2025-09-26T14:18:12.185568","MEAN_MOTION":13.16594869,"ECCENTRICITY":0.00017556,"INCLINATION":87.8966,"RA_OF_ASC_NODE":281.3049,"ARG_OF_PERICENTER":89.6965,"MEAN_ANOMALY":270.4367,"EPHEMERIS_TYPE":0,"CLASSIFICATION_TYPE":"U","NORAD_CAT_ID":48993,"ELEMENT_SET_NO":999,"REV_AT_EPOCH":20487,"BSTAR":-0.00022864013,"MEAN_MOTION_DOT":-7.5e-7,"MEAN_MOTION_DDOT":0},{"OBJECT_NAME":"ONEWEB-0276","OBJECT_ID":"2021-060AD","EPOCH":"2025-09-26T22:23:48.288192","MEAN_MOTION":13.16596507,"ECCENTRICITY":0.00018633,"INCLINATION":87.8968,"RA_OF_ASC_NODE":281.2353,"ARG_OF_PERICENTER":97.4627,"MEAN_ANOMALY":262.6716,"EPHEMERIS_TYPE":0,"CLASSIFICATION_TYPE":"U","NORAD_CAT_ID":48994,"ELEMENT_SET_NO":999,"REV_AT_EPOCH":20493,"BSTAR":0.00024613903,"MEAN_MOTION_DOT":1.07e-6,"MEAN_MOTION_DDOT":0},{"OBJECT_NAME":"ONEWEB-0277","OBJECT_ID":"2021-060AE","EPOCH":"2025-09-26T13:34:33.043872","MEAN_MOTION":13.16641516,"ECCENTRICITY":0.00016074,"INCLINATION":87.896,"RA_OF_ASC_NODE":281.3406,"ARG_OF_PERICENTER":89.0798,"MEAN_ANOMALY":271.0517,"EPHEMERIS_TYPE":0,"CLASSIFICATION_TYPE":"U","NORAD_CAT_ID":48995,"ELEMENT_SET_NO":999,"REV_AT_EPOCH":20487,"BSTAR":0.00021503094,"MEAN_MOTION_DOT":9.5e-7,"MEAN_MOTION_DDOT":0},{"OBJECT_NAME":"ONEWEB-0278","OBJECT_ID":"2021-060AF","EPOCH":"2025-09-26T22:28:22.603008","MEAN_MOTION":13.16592863,"ECCENTRICITY":0.00020657,"INCLINATION":87.8969,"RA_OF_ASC_NODE":281.2314,"ARG_OF_PERICENTER":95.4552,"MEAN_ANOMALY":264.6815,"EPHEMERIS_TYPE":0,"CLASSIFICATION_TYPE":"U","NORAD_CAT_ID":48996,"ELEMENT_SET_NO":999,"REV_AT_EPOCH":20505,"BSTAR":0.00028735559,"MEAN_MOTION_DOT":1.23e-6,"MEAN_MOTION_DDOT":0}]
